[{"OBJECT_NAME":"STARLINK-5953","OBJECT_ID":"2023-078AJ","EPOCH":"2026-03-09T22:00:21.196800","MEAN_MOTION":14.98328807,"ECCENTRICITY":0.00025563,"INCLINATION":70.0008,"RA_OF_ASC_NODE":343.9061,"ARG_OF_PERICENTER":270.8954,"MEAN_ANOMALY":89.1912,"EPHEMERIS_TYPE":0,"CLASSIFICATION_TYPE":"U","NORAD_CAT_ID":56799,"ELEMENT_SET_NO":999,"REV_AT_EPOCH":15271,"BSTAR":-4.599535e-6,"MEAN_MOTION_DOT":-1.48e-6,"MEAN_MOTION_DDOT":0},{"OBJECT_NAME":"COSMOS 2251 DEB","OBJECT_ID":"1993-036BKG","EPOCH":"2026-03-09T09:02:46.626720","MEAN_MOTION":15.0055284,"ECCENTRICITY":0.00290136,"INCLINATION":74.0178,"RA_OF_ASC_NODE":205.5033,"ARG_OF_PERICENTER":262.6992,"MEAN_ANOMALY":97.0897,"EPHEMERIS_TYPE":0,"CLASSIFICATION_TYPE":"U","NORAD_CAT_ID":37316,"ELEMENT_SET_NO":999,"REV_AT_EPOCH":87440,"BSTAR":0.002851028,"MEAN_MOTION_DOT":0.00036448,"MEAN_MOTION_DDOT":0}]
